[{"OBJECT_NAME":"STARLINK-32813","OBJECT_ID":"2025-022R","EPOCH":"2026-03-09T11:17:10.746528","MEAN_MOTION":15.30188357,"ECCENTRICITY":0.00013901,"INCLINATION":53.158,"RA_OF_ASC_NODE":130.8391,"ARG_OF_PERICENTER":88.053,"MEAN_ANOMALY":272.063,"EPHEMERIS_TYPE":0,"CLASSIFICATION_TYPE":"U","NORAD_CAT_ID":62869,"ELEMENT_SET_NO":999,"REV_AT_EPOCH":6186,"BSTAR":0.0010629446,"MEAN_MOTION_DOT":0.00031243,"MEAN_MOTION_DDOT":0},{"OBJECT_NAME":"NUSHSAT1","OBJECT_ID":"2025-052B","EPOCH":"2026-03-09T15:31:41.225952","MEAN_MOTION":15.31903202,"ECCENTRICITY":0.0005501,"INCLINATION":97.4095,"RA_OF_ASC_NODE":325.7239,"ARG_OF_PERICENTER":84.7512,"MEAN_ANOMALY":275.4357,"EPHEMERIS_TYPE":0,"CLASSIFICATION_TYPE":"U","NORAD_CAT_ID":63211,"ELEMENT_SET_NO":999,"REV_AT_EPOCH":5488,"BSTAR":0.00074857,"MEAN_MOTION_DOT":0.00023034,"MEAN_MOTION_DDOT":0}]
